STARLINK-36434          
1 67322U 26002T   26027.50002314 -.02100100  00000+0 -30583-1 0  9997
2 67322  42.9992 199.9474 0001367 267.9424 167.6502 15.58045701  4794
STARLINK-36497          
1 67323U 26002U   26027.50002314 -.02107091  00000+0 -30692-1 0  9995
2 67323  42.9991 199.9373 0001546 273.4709 165.9538 15.58049172  4852
STARLINK-36471          
1 67324U 26002V   26027.50002314 -.02071745  00000+0 -30136-1 0  9995
2 67324  42.9989 199.9280 0001726 266.1449 177.1208 15.58029095  4791
STARLINK-36473          
1 67325U 26002W   26027.50002314 -.02110721  00000+0 -30750-1 0  9996
2 67325  42.9991 199.9324 0001444 271.0397 170.3034 15.58050884  4958
STARLINK-36430          
1 67326U 26002X   26027.50002314 -.02105358  00000+0 -30665-1 0  9992
2 67326  42.9993 199.9173 0001464 273.2990 173.7931 15.58048889  4953
STARLINK-36501          
1 67327U 26002Y   26027.50002314 -.02102188  00000+0 -30614-1 0  9995
2 67327  42.9993 199.9231 0001559 271.7891 173.3878 15.58046927  4796
STARLINK-36489          
1 67328U 26002Z   26027.50002314 -.02119368  00000+0 -30885-1 0  9994
2 67328  42.9992 199.9133 0001497 271.9044 177.1038 15.58055898  4955
STARLINK-36496          
1 67329U 26002AA  26027.50002314 -.02116318  00000+0 -30836-1 0  9993
2 67329  42.9991 199.9026 0001576 273.9983 178.8443 15.58054278  4777
STARLINK-36483          
1 67330U 26002AB  26027.50002314 -.02115969  00000+0 -30835-1 0  9995
2 67330  42.9992 199.8925 0001437 272.1073 184.5716 15.58052157  4955
STARLINK-36494          
1 67331U 26002AC  26027.50002314 -.02120966  00000+0 -30910-1 0  9993
2 67331  42.9991 199.9075 0001571 274.3440 176.5819 15.58056267  4954
STARLINK-36492          
1 67332U 26002AD  26027.50002314 -.02116244  00000+0 -30839-1 0  9998
2 67332  42.9992 199.8980 0001482 273.1252 181.6369 15.58052033  4953
STARLINK-36427          
1 67333U 26002AE  26027.50002314 -.01476471  00000+0 -28865-1 0  9995
2 67333  42.9996 199.7907 0001528 270.1576 220.8938 15.49468022  4859
