CCSDS_OMM_VERS = 2.0
CREATION_DATE  = 
ORIGINATOR     = 

OBJECT_NAME    = STARLINK-36434
OBJECT_ID      = 2026-002T
CENTER_NAME    = EARTH
REF_FRAME      = TEME
TIME_SYSTEM    = UTC
MEAN_ELEMENT_THEORY = SGP/SGP4

EPOCH          = 2026-01-27T12:00:01.999296
MEAN_MOTION    = 15.58045701
ECCENTRICITY   = .0001367
INCLINATION    = 42.9992
RA_OF_ASC_NODE = 199.9474
ARG_OF_PERICENTER = 267.9424
MEAN_ANOMALY   = 167.6502

EPHEMERIS_TYPE = 0
CLASSIFICATION_TYPE = U
NORAD_CAT_ID   = 67322
ELEMENT_SET_NO = 999
REV_AT_EPOCH   = 479
BSTAR          = -.30583E-1
MEAN_MOTION_DOT = -.21001E-1
MEAN_MOTION_DDOT = 0

CCSDS_OMM_VERS = 2.0
CREATION_DATE  = 
ORIGINATOR     = 

OBJECT_NAME    = STARLINK-36497
OBJECT_ID      = 2026-002U
CENTER_NAME    = EARTH
REF_FRAME      = TEME
TIME_SYSTEM    = UTC
MEAN_ELEMENT_THEORY = SGP/SGP4

EPOCH          = 2026-01-27T12:00:01.999296
MEAN_MOTION    = 15.58049172
ECCENTRICITY   = .0001546
INCLINATION    = 42.9991
RA_OF_ASC_NODE = 199.9373
ARG_OF_PERICENTER = 273.4709
MEAN_ANOMALY   = 165.9538

EPHEMERIS_TYPE = 0
CLASSIFICATION_TYPE = U
NORAD_CAT_ID   = 67323
ELEMENT_SET_NO = 999
REV_AT_EPOCH   = 485
BSTAR          = -.30692E-1
MEAN_MOTION_DOT = -.2107091E-1
MEAN_MOTION_DDOT = 0

CCSDS_OMM_VERS = 2.0
CREATION_DATE  = 
ORIGINATOR     = 

OBJECT_NAME    = STARLINK-36471
OBJECT_ID      = 2026-002V
CENTER_NAME    = EARTH
REF_FRAME      = TEME
TIME_SYSTEM    = UTC
MEAN_ELEMENT_THEORY = SGP/SGP4

EPOCH          = 2026-01-27T12:00:01.999296
MEAN_MOTION    = 15.58029095
ECCENTRICITY   = .0001726
INCLINATION    = 42.9989
RA_OF_ASC_NODE = 199.9280
ARG_OF_PERICENTER = 266.1449
MEAN_ANOMALY   = 177.1208

EPHEMERIS_TYPE = 0
CLASSIFICATION_TYPE = U
NORAD_CAT_ID   = 67324
ELEMENT_SET_NO = 999
REV_AT_EPOCH   = 479
BSTAR          = -.30136E-1
MEAN_MOTION_DOT = -.2071745E-1
MEAN_MOTION_DDOT = 0

CCSDS_OMM_VERS = 2.0
CREATION_DATE  = 
ORIGINATOR     = 

OBJECT_NAME    = STARLINK-36473
OBJECT_ID      = 2026-002W
CENTER_NAME    = EARTH
REF_FRAME      = TEME
TIME_SYSTEM    = UTC
MEAN_ELEMENT_THEORY = SGP/SGP4

EPOCH          = 2026-01-27T12:00:01.999296
MEAN_MOTION    = 15.58050884
ECCENTRICITY   = .0001444
INCLINATION    = 42.9991
RA_OF_ASC_NODE = 199.9324
ARG_OF_PERICENTER = 271.0397
MEAN_ANOMALY   = 170.3034

EPHEMERIS_TYPE = 0
CLASSIFICATION_TYPE = U
NORAD_CAT_ID   = 67325
ELEMENT_SET_NO = 999
REV_AT_EPOCH   = 495
BSTAR          = -.3075E-1
MEAN_MOTION_DOT = -.2110721E-1
MEAN_MOTION_DDOT = 0

CCSDS_OMM_VERS = 2.0
CREATION_DATE  = 
ORIGINATOR     = 

OBJECT_NAME    = STARLINK-36430
OBJECT_ID      = 2026-002X
CENTER_NAME    = EARTH
REF_FRAME      = TEME
TIME_SYSTEM    = UTC
MEAN_ELEMENT_THEORY = SGP/SGP4

EPOCH          = 2026-01-27T12:00:01.999296
MEAN_MOTION    = 15.58048889
ECCENTRICITY   = .0001464
INCLINATION    = 42.9993
RA_OF_ASC_NODE = 199.9173
ARG_OF_PERICENTER = 273.2990
MEAN_ANOMALY   = 173.7931

EPHEMERIS_TYPE = 0
CLASSIFICATION_TYPE = U
NORAD_CAT_ID   = 67326
ELEMENT_SET_NO = 999
REV_AT_EPOCH   = 495
BSTAR          = -.30665E-1
MEAN_MOTION_DOT = -.2105358E-1
MEAN_MOTION_DDOT = 0

CCSDS_OMM_VERS = 2.0
CREATION_DATE  = 
ORIGINATOR     = 

OBJECT_NAME    = STARLINK-36501
OBJECT_ID      = 2026-002Y
CENTER_NAME    = EARTH
REF_FRAME      = TEME
TIME_SYSTEM    = UTC
MEAN_ELEMENT_THEORY = SGP/SGP4

EPOCH          = 2026-01-27T12:00:01.999296
MEAN_MOTION    = 15.58046927
ECCENTRICITY   = .0001559
INCLINATION    = 42.9993
RA_OF_ASC_NODE = 199.9231
ARG_OF_PERICENTER = 271.7891
MEAN_ANOMALY   = 173.3878

EPHEMERIS_TYPE = 0
CLASSIFICATION_TYPE = U
NORAD_CAT_ID   = 67327
ELEMENT_SET_NO = 999
REV_AT_EPOCH   = 479
BSTAR          = -.30614E-1
MEAN_MOTION_DOT = -.2102188E-1
MEAN_MOTION_DDOT = 0

CCSDS_OMM_VERS = 2.0
CREATION_DATE  = 
ORIGINATOR     = 

OBJECT_NAME    = STARLINK-36489
OBJECT_ID      = 2026-002Z
CENTER_NAME    = EARTH
REF_FRAME      = TEME
TIME_SYSTEM    = UTC
MEAN_ELEMENT_THEORY = SGP/SGP4

EPOCH          = 2026-01-27T12:00:01.999296
MEAN_MOTION    = 15.58055898
ECCENTRICITY   = .0001497
INCLINATION    = 42.9992
RA_OF_ASC_NODE = 199.9133
ARG_OF_PERICENTER = 271.9044
MEAN_ANOMALY   = 177.1038

EPHEMERIS_TYPE = 0
CLASSIFICATION_TYPE = U
NORAD_CAT_ID   = 67328
ELEMENT_SET_NO = 999
REV_AT_EPOCH   = 495
BSTAR          = -.30885E-1
MEAN_MOTION_DOT = -.2119368E-1
MEAN_MOTION_DDOT = 0

CCSDS_OMM_VERS = 2.0
CREATION_DATE  = 
ORIGINATOR     = 

OBJECT_NAME    = STARLINK-36496
OBJECT_ID      = 2026-002AA
CENTER_NAME    = EARTH
REF_FRAME      = TEME
TIME_SYSTEM    = UTC
MEAN_ELEMENT_THEORY = SGP/SGP4

EPOCH          = 2026-01-27T12:00:01.999296
MEAN_MOTION    = 15.58054278
ECCENTRICITY   = .0001576
INCLINATION    = 42.9991
RA_OF_ASC_NODE = 199.9026
ARG_OF_PERICENTER = 273.9983
MEAN_ANOMALY   = 178.8443

EPHEMERIS_TYPE = 0
CLASSIFICATION_TYPE = U
NORAD_CAT_ID   = 67329
ELEMENT_SET_NO = 999
REV_AT_EPOCH   = 477
BSTAR          = -.30836E-1
MEAN_MOTION_DOT = -.2116318E-1
MEAN_MOTION_DDOT = 0

CCSDS_OMM_VERS = 2.0
CREATION_DATE  = 
ORIGINATOR     = 

OBJECT_NAME    = STARLINK-36483
OBJECT_ID      = 2026-002AB
CENTER_NAME    = EARTH
REF_FRAME      = TEME
TIME_SYSTEM    = UTC
MEAN_ELEMENT_THEORY = SGP/SGP4

EPOCH          = 2026-01-27T12:00:01.999296
MEAN_MOTION    = 15.58052157
ECCENTRICITY   = .0001437
INCLINATION    = 42.9992
RA_OF_ASC_NODE = 199.8925
ARG_OF_PERICENTER = 272.1073
MEAN_ANOMALY   = 184.5716

EPHEMERIS_TYPE = 0
CLASSIFICATION_TYPE = U
NORAD_CAT_ID   = 67330
ELEMENT_SET_NO = 999
REV_AT_EPOCH   = 495
BSTAR          = -.30835E-1
MEAN_MOTION_DOT = -.2115969E-1
MEAN_MOTION_DDOT = 0

CCSDS_OMM_VERS = 2.0
CREATION_DATE  = 
ORIGINATOR     = 

OBJECT_NAME    = STARLINK-36494
OBJECT_ID      = 2026-002AC
CENTER_NAME    = EARTH
REF_FRAME      = TEME
TIME_SYSTEM    = UTC
MEAN_ELEMENT_THEORY = SGP/SGP4

EPOCH          = 2026-01-27T12:00:01.999296
MEAN_MOTION    = 15.58056267
ECCENTRICITY   = .0001571
INCLINATION    = 42.9991
RA_OF_ASC_NODE = 199.9075
ARG_OF_PERICENTER = 274.3440
MEAN_ANOMALY   = 176.5819

EPHEMERIS_TYPE = 0
CLASSIFICATION_TYPE = U
NORAD_CAT_ID   = 67331
ELEMENT_SET_NO = 999
REV_AT_EPOCH   = 495
BSTAR          = -.3091E-1
MEAN_MOTION_DOT = -.2120966E-1
MEAN_MOTION_DDOT = 0

CCSDS_OMM_VERS = 2.0
CREATION_DATE  = 
ORIGINATOR     = 

OBJECT_NAME    = STARLINK-36492
OBJECT_ID      = 2026-002AD
CENTER_NAME    = EARTH
REF_FRAME      = TEME
TIME_SYSTEM    = UTC
MEAN_ELEMENT_THEORY = SGP/SGP4

EPOCH          = 2026-01-27T12:00:01.999296
MEAN_MOTION    = 15.58052033
ECCENTRICITY   = .0001482
INCLINATION    = 42.9992
RA_OF_ASC_NODE = 199.8980
ARG_OF_PERICENTER = 273.1252
MEAN_ANOMALY   = 181.6369

EPHEMERIS_TYPE = 0
CLASSIFICATION_TYPE = U
NORAD_CAT_ID   = 67332
ELEMENT_SET_NO = 999
REV_AT_EPOCH   = 495
BSTAR          = -.30839E-1
MEAN_MOTION_DOT = -.2116244E-1
MEAN_MOTION_DDOT = 0

CCSDS_OMM_VERS = 2.0
CREATION_DATE  = 
ORIGINATOR     = 

OBJECT_NAME    = STARLINK-36427
OBJECT_ID      = 2026-002AE
CENTER_NAME    = EARTH
REF_FRAME      = TEME
TIME_SYSTEM    = UTC
MEAN_ELEMENT_THEORY = SGP/SGP4

EPOCH          = 2026-01-27T12:00:01.999296
MEAN_MOTION    = 15.49468022
ECCENTRICITY   = .0001528
INCLINATION    = 42.9996
RA_OF_ASC_NODE = 199.7907
ARG_OF_PERICENTER = 270.1576
MEAN_ANOMALY   = 220.8938

EPHEMERIS_TYPE = 0
CLASSIFICATION_TYPE = U
NORAD_CAT_ID   = 67333
ELEMENT_SET_NO = 999
REV_AT_EPOCH   = 485
BSTAR          = -.28865E-1
MEAN_MOTION_DOT = -.1476471E-1
MEAN_MOTION_DDOT = 0

